SENTINEL-6              
1 46984U 20086A   23328.26730923 -.00000066  00000+0 -19360-4 0  9993
2 46984  66.0411 278.9649 0007855 268.8249  91.1866 12.80931417140451
